EUTELSAT 7A             
1 28187U 04008A   25235.74350322  .00000089  00000+0  00000+0 0  9996
2 28187   5.0703  75.5644 0000854  99.6789 285.4862  1.00270516 78371
EUTELSAT 174A           
1 28924U 05052A   25235.85146123 -.00000005  00000+0  00000+0 0  9998
2 28924   3.4611  80.2368 0006024  74.9470 297.7141  1.00274176 49352
EUTELSAT HOTBIRD 13B    
1 29270U 06032A   25235.95608319  .00000141  00000+0  00000+0 0  9993
2 29270   0.8891  85.5875 0003970  63.5563 200.5950  1.00270865 44326
EUTELSAT HOTBIRD 13C    
1 33459U 08065A   25235.90947692 -.00000115  00000+0  00000+0 0  9992
2 33459   2.1814  82.7523 0003802  90.5756 114.0047  1.00272399 44361
EUTELSAT 36B            
1 36101U 09065A   25235.97046544  .00000098  00000+0  00000+0 0  9992
2 36101   0.0545 353.4806 0005692 162.9577 215.8962  1.00273346 57725
EUTELSAT KA-SAT 9A      
1 37258U 10069A   25234.98100365  .00000044  00000+0  00000+0 0  9995
2 37258   0.0503 317.6490 0004146 173.3716 202.6579  1.00271806 41010
EUTELSAT 7 WEST A       
1 37816U 11051A   25235.90947692 -.00000075  00000+0  00000+0 0  9997
2 37816   0.0667  14.0535 0005328 152.0340 126.4335  1.00272141 50903
EUTELSAT 16A            
1 37836U 11057A   25235.94189758  .00000089  00000+0  00000+0 0  9994
2 37836   0.0656 349.4065 0005474 160.1981 177.9421  1.00270091  4345
